SL-14 R/B               
1 16792U 86046B   26048.19655891  .00000473  00000+0  51723-4 0  9998
2 16792  82.4799  99.5498 0021648 297.4503  62.4512 14.85570033123362
SL-14 R/B               
1 16882U 86055B   26048.32704234  .00000527  00000+0  57821-4 0  9994
2 16882  82.5232 145.8085 0019896  43.2685  15.2827 14.85621730116348
AJISAI (EGS)            
1 16908U 86061A   26048.48139090 -.00000108  00000+0 -72744-4 0  9997
2 16908  50.0083 155.4884 0011232 234.9293 208.9611 12.44515289465483
COSMOS 1812             
1 17295U 87003A   26048.50663358  .00417490  74160-4  76704-3 0  9992
2 17295  82.4748 218.6361 0002946 300.9377  59.1612 16.01253427141232
SL-14 R/B               
1 17567U 87024B   26048.23744101  .00000485  00000+0  52531-4 0  9995
2 17567  82.5275 111.9882 0017403 332.9717  27.0592 14.86112365 85098
COSMOS 1833             
1 17589U 87027A   26048.33131079 -.00000045  00000+0  15188-5 0  9998
2 17589  70.9227   8.8029 0024862 242.2527 117.6073 14.13057385  7449
SL-16 R/B               
1 17590U 87027B   26048.15220202  .00000194  00000+0  11993-3 0  9999
2 17590  71.0042 319.7724 0004575 179.2491 180.8640 14.17163565 12431
SL-14 R/B               
1 17912U 87038B   26048.22187219  .00000523  00000+0  57944-4 0  9990
2 17912  82.5037 316.0860 0017953 229.5465 130.4187 14.85349720 76199
COSMOS 1844             
1 17973U 87041A   26048.45878324  .00000357  00000+0  21004-3 0  9992
2 17973  70.8980  76.8493 0029046  50.1701 310.1970 14.14548899   726
SL-14 R/B               
1 18153U 87055B   26048.33711134  .00000581  00000+0  64092-4 0  9994
2 18153  82.5010   8.2086 0022326  81.3555 279.0190 14.85603165 66911
COSMOS 1867             
1 18187U 87060A   26048.25125627 -.00000038  00000+0  23505-4 0  9996
2 18187  65.0122   3.9400 0014172 277.4997  82.4477 14.31499693 17019
SL-14 R/B               
1 18749U 88001B   26048.46570685  .00000548  00000+0  60595-4 0  9992
2 18749  82.5117 214.3804 0016868 308.3857  51.5843 14.85502073 39025
